0 COSMOS 2115
1 21029U 90114B   13284.16349825  .00000041  00000-0  16534-3 0  9914
2 21029 082.5648 297.7661 0001608 256.4437 175.6067 12.63432706 51702
0 COSMOS 2115
1 21029U 90114B   13286.48120280  .00000024  00000-0  73538-4 0  9923
2 21029 082.5645 296.2812 0001653 248.0551 280.4843 12.63433015 51997
0 COSMOS 2115
1 21029U 90114B   13288.76725397  .00000008  00000-0 -15390-4 0  9932
2 21029 082.5646 294.8165 0001704 240.7767 240.3553 12.63433288 52286
0 COSMOS 2115
1 21029U 90114B   13290.97098523  .00000005  00000-0 -30349-4 0  9941
2 21029 082.5649 293.4044 0001740 234.2726 185.2202 12.63433275 52568
0 COSMOS 2115
1 21029U 90114B   13293.11041667  .00000017  00000-0  33522-4 0  9956
2 21029 082.5652 292.0336 0001839 226.5446 198.9970 12.63433072 52831
0 COSMOS 2115
1 21029U 90114B   13295.49633372  .00000044  00000-0  18337-3 0  9966
2 21029 082.5653 290.5052 0001910 219.6170 252.5179 12.63432941 53133
